STARLINK-3308           
1 50846U 22001AV  26018.46240625 -.00000268  00000+0  12861-5 0  9993
2 50846  53.2175  44.7156 0001466  92.7212 267.3948 15.08842463222685
STARLINK-3315           
1 50848U 22001AX  26018.77888082  .00000342  00000+0  39597-4 0  9990
2 50848  53.2203  43.1802 0001520  88.9930 271.1236 15.08835078222738
STARLINK-3311           
1 50849U 22001AY  26018.39247319  .00000332  00000+0  38924-4 0  9993
2 50849  53.2180  44.9162 0001366  87.9900 272.1248 15.08838720222679
STARLINK-3312           
1 50850U 22001AZ  26018.66111559  .00000710  00000+0  62728-4 0  9990
2 50850  53.2208   3.7086 0001451  91.8125 268.3034 15.08836244223814
STARLINK-3314           
1 50851U 22001BA  26018.76782492 -.00000080  00000+0  13057-4 0  9994
2 50851  53.2179  43.1522 0001392  85.3396 274.7755 15.08835344222738
STARLINK-3366           
1 51104U 22005A   26018.66203552 -.00000402  00000+0 -71727-5 0  9992
2 51104  53.2173 153.7058 0001208  88.8827 271.2304 15.08831805221323
STARLINK-3350           
1 51105U 22005B   26018.76875023  .00000264  00000+0  34691-4 0  9994
2 51105  53.2173 153.2232 0001222  83.4017 276.7115 15.08842364221345
STARLINK-3176           
1 51106U 22005C   26018.74667612 -.00000579  00000+0 -18293-4 0  9997
2 51106  53.2178 153.3290 0001300  96.9024 263.2116 15.08836119221332
STARLINK-3362           
1 51108U 22005E   26018.63259358  .00000671  00000+0  60267-4 0  9990
2 51108  53.2162 153.8344 0001174  88.1571 271.9556 15.08839890221323
STARLINK-3358           
1 51109U 22005F   26018.65098744  .00002214  00000+0  15713-3 0  9993
2 51109  53.2168 153.7051 0001268 101.7481 258.3653 15.08839579221095
STARLINK-3344           
1 51110U 22005G   26018.68779854  .00001476  00000+0  11081-3 0  9999
2 51110  53.2163 153.5686 0001497  82.3668 277.7495 15.08842013221332
STARLINK-3173           
1 51111U 22005H   26018.66571508 -.00000467  00000+0 -11279-4 0  9995
2 51111  53.2174 153.6903 0001244  92.0836 268.0299 15.08837431221325
STARLINK-3374           
1 51112U 22005J   26018.68507086 -.00001338  00000+0 -66014-4 0  9993
2 51112  53.2163 153.5733 0001194  77.2691 282.8435 15.08826154221339
STARLINK-3372           
1 51113U 22005K   26018.80924105  .00001369  00000+0  10408-3 0  9990
2 51113  53.2169 153.0454 0001305  86.5138 273.6004 15.08850585221340
STARLINK-3375           
1 51114U 22005L   26018.69515225  .00000592  00000+0  55279-4 0  9990
2 51114  53.2163 153.5538 0001291  86.4611 273.6529 15.08839068221336
STARLINK-3397           
1 51115U 22005M   26018.80187667 -.00000668  00000+0 -23887-4 0  9995
2 51115  53.2177 153.0787 0001239  85.6961 274.4173 15.08834110221342
