[{"OBJECT_NAME":"STARLINK-3308","OBJECT_ID":"2022-001AV","EPOCH":"2026-01-18T11:05:51.900000","MEAN_MOTION":15.08842463,"ECCENTRICITY":0.00014666,"INCLINATION":53.2175,"RA_OF_ASC_NODE":44.7156,"ARG_OF_PERICENTER":92.7212,"MEAN_ANOMALY":267.3948,"EPHEMERIS_TYPE":0,"CLASSIFICATION_TYPE":"U","NORAD_CAT_ID":50846,"ELEMENT_SET_NO":999,"REV_AT_EPOCH":22268,"BSTAR":1.286107e-6,"MEAN_MOTION_DOT":-2.68e-6,"MEAN_MOTION_DDOT":0},{"OBJECT_NAME":"STARLINK-3315","OBJECT_ID":"2022-001AX","EPOCH":"2026-01-18T18:41:35.302848","MEAN_MOTION":15.08835078,"ECCENTRICITY":0.00015202,"INCLINATION":53.2203,"RA_OF_ASC_NODE":43.1802,"ARG_OF_PERICENTER":88.993,"MEAN_ANOMALY":271.1236,"EPHEMERIS_TYPE":0,"CLASSIFICATION_TYPE":"U","NORAD_CAT_ID":50848,"ELEMENT_SET_NO":999,"REV_AT_EPOCH":22273,"BSTAR":3.9597139e-5,"MEAN_MOTION_DOT":3.42e-6,"MEAN_MOTION_DDOT":0},{"OBJECT_NAME":"STARLINK-3311","OBJECT_ID":"2022-001AY","EPOCH":"2026-01-18T09:25:09.683616","MEAN_MOTION":15.0883872,"ECCENTRICITY":0.0001366,"INCLINATION":53.218,"RA_OF_ASC_NODE":44.9162,"ARG_OF_PERICENTER":87.99,"MEAN_ANOMALY":272.1248,"EPHEMERIS_TYPE":0,"CLASSIFICATION_TYPE":"U","NORAD_CAT_ID":50849,"ELEMENT_SET_NO":999,"REV_AT_EPOCH":22267,"BSTAR":3.8923607e-5,"MEAN_MOTION_DOT":3.32e-6,"MEAN_MOTION_DDOT":0},{"OBJECT_NAME":"STARLINK-3312","OBJECT_ID":"2022-001AZ","EPOCH":"2026-01-18T15:52:00.386976","MEAN_MOTION":15.08836244,"ECCENTRICITY":0.00014519,"INCLINATION":53.2208,"RA_OF_ASC_NODE":3.7086,"ARG_OF_PERICENTER":91.8125,"MEAN_ANOMALY":268.3034,"EPHEMERIS_TYPE":0,"CLASSIFICATION_TYPE":"U","NORAD_CAT_ID":50850,"ELEMENT_SET_NO":999,"REV_AT_EPOCH":22381,"BSTAR":6.2727965e-5,"MEAN_MOTION_DOT":7.1e-6,"MEAN_MOTION_DDOT":0},{"OBJECT_NAME":"STARLINK-3314","OBJECT_ID":"2022-001BA","EPOCH":"2026-01-18T18:25:40.073088","MEAN_MOTION":15.08835344,"ECCENTRICITY":0.00013924,"INCLINATION":53.2179,"RA_OF_ASC_NODE":43.1522,"ARG_OF_PERICENTER":85.3396,"MEAN_ANOMALY":274.7755,"EPHEMERIS_TYPE":0,"CLASSIFICATION_TYPE":"U","NORAD_CAT_ID":50851,"ELEMENT_SET_NO":999,"REV_AT_EPOCH":22273,"BSTAR":1.305699e-5,"MEAN_MOTION_DOT":-8.0e-7,"MEAN_MOTION_DDOT":0},{"OBJECT_NAME":"STARLINK-3366","OBJECT_ID":"2022-005A","EPOCH":"2026-01-18T15:53:19.868928","MEAN_MOTION":15.08831805,"ECCENTRICITY":0.0001208,"INCLINATION":53.2173,"RA_OF_ASC_NODE":153.7058,"ARG_OF_PERICENTER":88.8827,"MEAN_ANOMALY":271.2304,"EPHEMERIS_TYPE":0,"CLASSIFICATION_TYPE":"U","NORAD_CAT_ID":51104,"ELEMENT_SET_NO":999,"REV_AT_EPOCH":22132,"BSTAR":-7.172669e-6,"MEAN_MOTION_DOT":-4.02e-6,"MEAN_MOTION_DDOT":0},{"OBJECT_NAME":"STARLINK-3350","OBJECT_ID":"2022-005B","EPOCH":"2026-01-18T18:27:00.019872","MEAN_MOTION":15.08842364,"ECCENTRICITY":0.00012222,"INCLINATION":53.2173,"RA_OF_ASC_NODE":153.2232,"ARG_OF_PERICENTER":83.4017,"MEAN_ANOMALY":276.7115,"EPHEMERIS_TYPE":0,"CLASSIFICATION_TYPE":"U","NORAD_CAT_ID":51105,"ELEMENT_SET_NO":999,"REV_AT_EPOCH":22134,"BSTAR":3.4690517e-5,"MEAN_MOTION_DOT":2.64e-6,"MEAN_MOTION_DDOT":0},{"OBJECT_NAME":"STARLINK-3176","OBJECT_ID":"2022-005C","EPOCH":"2026-01-18T17:55:12.816768","MEAN_MOTION":15.08836119,"ECCENTRICITY":0.00013007,"INCLINATION":53.2178,"RA_OF_ASC_NODE":153.329,"ARG_OF_PERICENTER":96.9024,"MEAN_ANOMALY":263.2116,"EPHEMERIS_TYPE":0,"CLASSIFICATION_TYPE":"U","NORAD_CAT_ID":51106,"ELEMENT_SET_NO":999,"REV_AT_EPOCH":22133,"BSTAR":-1.8293123e-5,"MEAN_MOTION_DOT":-5.79e-6,"MEAN_MOTION_DDOT":0},{"OBJECT_NAME":"STARLINK-3362","OBJECT_ID":"2022-005E","EPOCH":"2026-01-18T15:10:56.085312","MEAN_MOTION":15.0883989,"ECCENTRICITY":0.00011747,"INCLINATION":53.2162,"RA_OF_ASC_NODE":153.8344,"ARG_OF_PERICENTER":88.1571,"MEAN_ANOMALY":271.9556,"EPHEMERIS_TYPE":0,"CLASSIFICATION_TYPE":"U","NORAD_CAT_ID":51108,"ELEMENT_SET_NO":999,"REV_AT_EPOCH":22132,"BSTAR":6.026662e-5,"MEAN_MOTION_DOT":6.71e-6,"MEAN_MOTION_DDOT":0},{"OBJECT_NAME":"STARLINK-3358","OBJECT_ID":"2022-005F","EPOCH":"2026-01-18T15:37:25.314816","MEAN_MOTION":15.08839579,"ECCENTRICITY":0.00012689,"INCLINATION":53.2168,"RA_OF_ASC_NODE":153.7051,"ARG_OF_PERICENTER":101.7481,"MEAN_ANOMALY":258.3653,"EPHEMERIS_TYPE":0,"CLASSIFICATION_TYPE":"U","NORAD_CAT_ID":51109,"ELEMENT_SET_NO":999,"REV_AT_EPOCH":22109,"BSTAR":0.00015713169,"MEAN_MOTION_DOT":2.214e-5,"MEAN_MOTION_DDOT":0},{"OBJECT_NAME":"STARLINK-3344","OBJECT_ID":"2022-005G","EPOCH":"2026-01-18T16:30:25.793856","MEAN_MOTION":15.08842013,"ECCENTRICITY":0.00014972,"INCLINATION":53.2163,"RA_OF_ASC_NODE":153.5686,"ARG_OF_PERICENTER":82.3668,"MEAN_ANOMALY":277.7495,"EPHEMERIS_TYPE":0,"CLASSIFICATION_TYPE":"U","NORAD_CAT_ID":51110,"ELEMENT_SET_NO":999,"REV_AT_EPOCH":22133,"BSTAR":0.00011080642,"MEAN_MOTION_DOT":1.476e-5,"MEAN_MOTION_DDOT":0},{"OBJECT_NAME":"STARLINK-3173","OBJECT_ID":"2022-005H","EPOCH":"2026-01-18T15:58:37.782912","MEAN_MOTION":15.08837431,"ECCENTRICITY":0.00012442,"INCLINATION":53.2174,"RA_OF_ASC_NODE":153.6903,"ARG_OF_PERICENTER":92.0836,"MEAN_ANOMALY":268.0299,"EPHEMERIS_TYPE":0,"CLASSIFICATION_TYPE":"U","NORAD_CAT_ID":51111,"ELEMENT_SET_NO":999,"REV_AT_EPOCH":22132,"BSTAR":-1.1279219e-5,"MEAN_MOTION_DOT":-4.67e-6,"MEAN_MOTION_DDOT":0},{"OBJECT_NAME":"STARLINK-3374","OBJECT_ID":"2022-005J","EPOCH":"2026-01-18T16:26:30.122304","MEAN_MOTION":15.08826154,"ECCENTRICITY":0.00011949,"INCLINATION":53.2163,"RA_OF_ASC_NODE":153.5733,"ARG_OF_PERICENTER":77.2691,"MEAN_ANOMALY":282.8435,"EPHEMERIS_TYPE":0,"CLASSIFICATION_TYPE":"U","NORAD_CAT_ID":51112,"ELEMENT_SET_NO":999,"REV_AT_EPOCH":22133,"BSTAR":-6.6013867e-5,"MEAN_MOTION_DOT":-1.338e-5,"MEAN_MOTION_DDOT":0},{"OBJECT_NAME":"STARLINK-3372","OBJECT_ID":"2022-005K","EPOCH":"2026-01-18T19:25:18.426720","MEAN_MOTION":15.08850585,"ECCENTRICITY":0.00013052,"INCLINATION":53.2169,"RA_OF_ASC_NODE":153.0454,"ARG_OF_PERICENTER":86.5138,"MEAN_ANOMALY":273.6004,"EPHEMERIS_TYPE":0,"CLASSIFICATION_TYPE":"U","NORAD_CAT_ID":51113,"ELEMENT_SET_NO":999,"REV_AT_EPOCH":22134,"BSTAR":0.00010408327,"MEAN_MOTION_DOT":1.369e-5,"MEAN_MOTION_DDOT":0},{"OBJECT_NAME":"STARLINK-3375","OBJECT_ID":"2022-005L","EPOCH":"2026-01-18T16:41:01.154400","MEAN_MOTION":15.08839068,"ECCENTRICITY":0.00012919,"INCLINATION":53.2163,"RA_OF_ASC_NODE":153.5538,"ARG_OF_PERICENTER":86.4611,"MEAN_ANOMALY":273.6529,"EPHEMERIS_TYPE":0,"CLASSIFICATION_TYPE":"U","NORAD_CAT_ID":51114,"ELEMENT_SET_NO":999,"REV_AT_EPOCH":22133,"BSTAR":5.5278972e-5,"MEAN_MOTION_DOT":5.92e-6,"MEAN_MOTION_DDOT":0},{"OBJECT_NAME":"STARLINK-3397","OBJECT_ID":"2022-005M","EPOCH":"2026-01-18T19:14:42.144288","MEAN_MOTION":15.0883411,"ECCENTRICITY":0.00012391,"INCLINATION":53.2177,"RA_OF_ASC_NODE":153.0787,"ARG_OF_PERICENTER":85.6961,"MEAN_ANOMALY":274.4173,"EPHEMERIS_TYPE":0,"CLASSIFICATION_TYPE":"U","NORAD_CAT_ID":51115,"ELEMENT_SET_NO":999,"REV_AT_EPOCH":22134,"BSTAR":-2.3887061e-5,"MEAN_MOTION_DOT":-6.68e-6,"MEAN_MOTION_DDOT":0}]
